{
  "type": "FeatureCollection",
  "features": [
    {
      "type": "Feature",
      "properties": {
        "norad_id": 29798,
        "name": "FENGYUN 1C DEB",
        "group": "fengyun-1c-debris",
        "lat": 24.01909147532645,
        "lon": 42.10729149409393,
        "alt_km": 908.2529077453191,
        "timestamp": "2025-12-08T10:52:03.218934+00:00",
        "meta_object_name": "FENGYUN 1C DEB",
        "meta_object_id": "1999-025CQ",
        "meta_epoch": "2025-12-07T16:36:38.633184",
        "meta_mean_motion": 13.99539118,
        "meta_eccentricity": 0.01114072,
        "meta_inclination": 99.2953,
        "meta_ra_of_asc_node": 45.5205,
        "meta_arg_of_pericenter": 286.2824,
        "meta_mean_anomaly": 226.3229,
        "meta_ephemeris_type": 0,
        "meta_classification_type": "U",
        "meta_norad_cat_id": 29798,
        "meta_element_set_no": 999,
        "meta_rev_at_epoch": 95854,
        "meta_bstar": 0.0021573889,
        "meta_mean_motion_dot": 3.274e-05,
        "meta_mean_motion_ddot": 0,
        "tle_line1": "1 29798U 99025CQ  25341.69211381  .00003274  00000+0  21574-2 0  9992",
        "tle_line2": "2 29798  99.2953  45.5205 0111407 286.2824 226.3229 13.99539118958547"
      },
      "geometry": {
        "type": "Point",
        "coordinates": [
          42.10729149409393,
          24.01909147532645
        ]
      }
    },
    {
      "type": "Feature",
      "properties": {
        "norad_id": 29800,
        "name": "FENGYUN 1C DEB",
        "group": "fengyun-1c-debris",
        "lat": -25.73997669509484,
        "lon": -179.55896994122327,
        "alt_km": 823.0738527535914,
        "timestamp": "2025-12-08T10:52:03.218945+00:00",
        "meta_object_name": "FENGYUN 1C DEB",
        "meta_object_id": "1999-025CS",
        "meta_epoch": "2025-12-07T13:54:35.069184",
        "meta_mean_motion": 13.98523935,
        "meta_eccentricity": 0.01333644,
        "meta_inclination": 98.2892,
        "meta_ra_of_asc_node": 3.6816,
        "meta_arg_of_pericenter": 241.8118,
        "meta_mean_anomaly": 250.8891,
        "meta_ephemeris_type": 0,
        "meta_classification_type": "U",
        "meta_norad_cat_id": 29800,
        "meta_element_set_no": 999,
        "meta_rev_at_epoch": 95504,
        "meta_bstar": 0.0028750357,
        "meta_mean_motion_dot": 4.407e-05,
        "meta_mean_motion_ddot": 0,
        "tle_line1": "1 29800U 99025CS  25341.57957256  .00004407  00000+0  28750-2 0  9993",
        "tle_line2": "2 29800  98.2892   3.6816 0133364 241.8118 250.8891 13.98523935955042"
      },
      "geometry": {
        "type": "Point",
        "coordinates": [
          -179.55896994122327,
          -25.73997669509484
        ]
      }
    },
    {
      "type": "Feature",
      "properties": {
        "norad_id": 29801,
        "name": "FENGYUN 1C DEB",
        "group": "fengyun-1c-debris",
        "lat": -79.60500786051641,
        "lon": -59.05146862605188,
        "alt_km": 706.079039629989,
        "timestamp": "2025-12-08T10:52:03.218956+00:00",
        "meta_object_name": "FENGYUN 1C DEB",
        "meta_object_id": "1999-025CT",
        "meta_epoch": "2025-12-07T23:38:10.065408",
        "meta_mean_motion": 14.35887296,
        "meta_eccentricity": 0.01029035,
        "meta_inclination": 98.7949,
        "meta_ra_of_asc_node": 242.9119,
        "meta_arg_of_pericenter": 281.5647,
        "meta_mean_anomaly": 96.4155,
        "meta_ephemeris_type": 0,
        "meta_classification_type": "U",
        "meta_norad_cat_id": 29801,
        "meta_element_set_no": 999,
        "meta_rev_at_epoch": 98873,
        "meta_bstar": 0.00032761672,
        "meta_mean_motion_dot": 9.6e-06,
        "meta_mean_motion_ddot": 0,
        "tle_line1": "1 29801U 99025CT  25341.98483872  .00000960  00000+0  32762-3 0  9996",
        "tle_line2": "2 29801  98.7949 242.9119 0102903 281.5647  96.4155 14.35887296988732"
      },
      "geometry": {
        "type": "Point",
        "coordinates": [
          -59.05146862605188,
          -79.60500786051641
        ]
      }
    },
    {
      "type": "Feature",
      "properties": {
        "norad_id": 29802,
        "name": "FENGYUN 1C DEB",
        "group": "fengyun-1c-debris",
        "lat": -31.606205689976104,
        "lon": -93.97352922773868,
        "alt_km": 712.3912694817482,
        "timestamp": "2025-12-08T10:52:03.218967+00:00",
        "meta_object_name": "FENGYUN 1C DEB",
        "meta_object_id": "1999-025CU",
        "meta_epoch": "2025-12-07T06:06:55.867392",
        "meta_mean_motion": 14.62093907,
        "meta_eccentricity": 0.00369986,
        "meta_inclination": 98.62,
        "meta_ra_of_asc_node": 90.1334,
        "meta_arg_of_pericenter": 356.017,
        "meta_mean_anomaly": 34.0202,
        "meta_ephemeris_type": 0,
        "meta_classification_type": "U",
        "meta_norad_cat_id": 29802,
        "meta_element_set_no": 999,
        "meta_rev_at_epoch": 98393,
        "meta_bstar": 0.0043092972,
        "meta_mean_motion_dot": 0.00021876,
        "meta_mean_motion_ddot": 0,
        "tle_line1": "1 29802U 99025CU  25341.25481328  .00021876  00000+0  43093-2 0  9998",
        "tle_line2": "2 29802  98.6200  90.1334 0036998 356.0170  34.0202 14.62093907983939"
      },
      "geometry": {
        "type": "Point",
        "coordinates": [
          -93.97352922773868,
          -31.606205689976104
        ]
      }
    },
    {
      "type": "Feature",
      "properties": {
        "norad_id": 29804,
        "name": "FENGYUN 1C DEB",
        "group": "fengyun-1c-debris",
        "lat": -4.503228048640031,
        "lon": -8.508164886786146,
        "alt_km": 829.2041898387788,
        "timestamp": "2025-12-08T10:52:03.218977+00:00",
        "meta_object_name": "FENGYUN 1C DEB",
        "meta_object_id": "1999-025CW",
        "meta_epoch": "2025-12-07T23:14:01.646304",
        "meta_mean_motion": 14.0431918,
        "meta_eccentricity": 0.00973917,
        "meta_inclination": 98.8054,
        "meta_ra_of_asc_node": 350.3224,
        "meta_arg_of_pericenter": 315.2761,
        "meta_mean_anomaly": 110.2747,
        "meta_ephemeris_type": 0,
        "meta_classification_type": "U",
        "meta_norad_cat_id": 29804,
        "meta_element_set_no": 999,
        "meta_rev_at_epoch": 96827,
        "meta_bstar": 0.00026144653,
        "meta_mean_motion_dot": 3.9e-06,
        "meta_mean_motion_ddot": 0,
        "tle_line1": "1 29804U 99025CW  25341.96807461  .00000390  00000+0  26145-3 0  9996",
        "tle_line2": "2 29804  98.8054 350.3224 0097391 315.2761 110.2747 14.04319180968277"
      },
      "geometry": {
        "type": "Point",
        "coordinates": [
          -8.508164886786146,
          -4.503228048640031
        ]
      }
    },
    {
      "type": "Feature",
      "properties": {
        "norad_id": 29805,
        "name": "FENGYUN 1C DEB",
        "group": "fengyun-1c-debris",
        "lat": -71.8577751368698,
        "lon": 64.34908379719818,
        "alt_km": 897.5511018406223,
        "timestamp": "2025-12-08T10:52:03.218987+00:00",
        "meta_object_name": "FENGYUN 1C DEB",
        "meta_object_id": "1999-025CX",
        "meta_epoch": "2025-12-07T21:13:58.117152",
        "meta_mean_motion": 13.72654289,
        "meta_eccentricity": 0.01878058,
        "meta_inclination": 99.4557,
        "meta_ra_of_asc_node": 33.218,
        "meta_arg_of_pericenter": 242.4249,
        "meta_mean_anomaly": 115.7713,
        "meta_ephemeris_type": 0,
        "meta_classification_type": "U",
        "meta_norad_cat_id": 29805,
        "meta_element_set_no": 999,
        "meta_rev_at_epoch": 94636,
        "meta_bstar": 0.00026203286,
        "meta_mean_motion_dot": 2.27e-06,
        "meta_mean_motion_ddot": 0,
        "tle_line1": "1 29805U 99025CX  25341.88470043  .00000227  00000+0  26203-3 0  9994",
        "tle_line2": "2 29805  99.4557  33.2180 0187805 242.4249 115.7713 13.72654289946368"
      },
      "geometry": {
        "type": "Point",
        "coordinates": [
          64.34908379719818,
          -71.8577751368698
        ]
      }
    },
    {
      "type": "Feature",
      "properties": {
        "norad_id": 29806,
        "name": "FENGYUN 1C DEB",
        "group": "fengyun-1c-debris",
        "lat": -63.24970823894487,
        "lon": 160.65220025160687,
        "alt_km": 841.0174825560525,
        "timestamp": "2025-12-08T10:52:03.218997+00:00",
        "meta_object_name": "FENGYUN 1C DEB",
        "meta_object_id": "1999-025CY",
        "meta_epoch": "2025-12-07T23:47:15.220032",
        "meta_mean_motion": 14.11992033,
        "meta_eccentricity": 0.00275106,
        "meta_inclination": 98.7128,
        "meta_ra_of_asc_node": 357.9156,
        "meta_arg_of_pericenter": 265.8581,
        "meta_mean_anomaly": 153.3856,
        "meta_ephemeris_type": 0,
        "meta_classification_type": "U",
        "meta_norad_cat_id": 29806,
        "meta_element_set_no": 999,
        "meta_rev_at_epoch": 97072,
        "meta_bstar": 0.00081782858,
        "meta_mean_motion_dot": 1.459e-05,
        "meta_mean_motion_ddot": 0,
        "tle_line1": "1 29806U 99025CY  25341.99114838  .00001459  00000+0  81783-3 0  9996",
        "tle_line2": "2 29806  98.7128 357.9156 0027510 265.8581 153.3856 14.11992033970727"
      },
      "geometry": {
        "type": "Point",
        "coordinates": [
          160.65220025160687,
          -63.24970823894487
        ]
      }
    }
  ]
}